[{"OBJECT_NAME":"TOMORROW-S3","OBJECT_ID":"2024-247R","EPOCH":"2026-03-09T11:56:51.820800","MEAN_MOTION":15.27672122,"ECCENTRICITY":3.967e-5,"INCLINATION":44.9999,"RA_OF_ASC_NODE":117.9871,"ARG_OF_PERICENTER":320.9462,"MEAN_ANOMALY":39.1392,"EPHEMERIS_TYPE":0,"CLASSIFICATION_TYPE":"U","NORAD_CAT_ID":62392,"ELEMENT_SET_NO":999,"REV_AT_EPOCH":6770,"BSTAR":0.00028857954,"MEAN_MOTION_DOT":7.664e-5,"MEAN_MOTION_DDOT":0},{"OBJECT_NAME":"STARLINK-36429","OBJECT_ID":"2026-003Y","EPOCH":"2026-03-09T10:46:58.070208","MEAN_MOTION":15.27610547,"ECCENTRICITY":9.64e-5,"INCLINATION":42.9966,"RA_OF_ASC_NODE":228.7174,"ARG_OF_PERICENTER":227.1582,"MEAN_ANOMALY":132.9189,"EPHEMERIS_TYPE":0,"CLASSIFICATION_TYPE":"U","NORAD_CAT_ID":67356,"ELEMENT_SET_NO":999,"REV_AT_EPOCH":878,"BSTAR":0.0017328812,"MEAN_MOTION_DOT":0.00047777,"MEAN_MOTION_DDOT":0}]
