TOMORROW-S3             
1 62392U 24247R   26068.49782200  .00007664  00000+0  28858-3 0  9991
2 62392  44.9999 117.9871 0000396 320.9462  39.1392 15.27672122 67708
STARLINK-36429          
1 67356U 26003Y   26068.44928322  .00047777  00000+0  17329-2 0  9999
2 67356  42.9966 228.7174 0000964 227.1582 132.9189 15.27610547  8786
